{
    "links": {
        "self": "http://www.neowsapp.com/rest/v1/neo/54073359?api_key=iIulBulltgU6a56xZRHN4H3l9WmuAYTsLGpBGhQ2"
    },
    "id": "54073359",
    "neo_reference_id": "54073359",
    "name": "(2020 UO)",
    "designation": "2020 UO",
    "nasa_jpl_url": "http://ssd.jpl.nasa.gov/sbdb.cgi?sstr=54073359",
    "absolute_magnitude_h": 24.116,
    "estimated_diameter": {
        "kilometers": {
            "estimated_diameter_min": 0.0399351184,
            "estimated_diameter_max": 0.0892976395
        },
        "meters": {
            "estimated_diameter_min": 39.9351184217,
            "estimated_diameter_max": 89.2976394805
        },
        "miles": {
            "estimated_diameter_min": 0.0248145245,
            "estimated_diameter_max": 0.0554869635
        },
        "feet": {
            "estimated_diameter_min": 131.0207339227,
            "estimated_diameter_max": 292.971267513
        }
    },
    "is_potentially_hazardous_asteroid": false,
    "close_approach_data": [
        {
            "close_approach_date": "2016-11-08",
            "close_approach_date_full": "2016-Nov-08 06:58",
            "epoch_date_close_approach": 1478588280000,
            "relative_velocity": {
                "kilometers_per_second": "10.7297743793",
                "kilometers_per_hour": "38627.1877653644",
                "miles_per_hour": "24001.4323089844"
            },
            "miss_distance": {
                "astronomical": "0.450126415",
                "lunar": "175.099175435",
                "kilometers": "67337952.91473605",
                "miles": "41841863.70821549"
            },
            "orbiting_body": "Earth"
        },
        {
            "close_approach_date": "2020-10-26",
            "close_approach_date_full": "2020-Oct-26 18:53",
            "epoch_date_close_approach": 1603738380000,
            "relative_velocity": {
                "kilometers_per_second": "4.5303389915",
                "kilometers_per_hour": "16309.2203694265",
                "miles_per_hour": "10133.9152901028"
            },
            "miss_distance": {
                "astronomical": "0.1898735649",
                "lunar": "73.8608167461",
                "kilometers": "28404680.878346763",
                "miles": "17649850.2633728094"
            },
            "orbiting_body": "Earth"
        }
    ],
    "orbital_data": {
        "orbit_id": "7",
        "orbit_determination_date": "2020-11-23 05:21:42",
        "first_observation_date": "2020-09-16",
        "last_observation_date": "2020-11-23",
        "data_arc_in_days": 68,
        "observations_used": 44,
        "orbit_uncertainty": "6",
        "minimum_orbit_intersection": ".18678",
        "jupiter_tisserand_invariant": "3.259",
        "epoch_osculation": "2459000.5",
        "eccentricity": ".5294066773734568",
        "semi_major_axis": "2.493056082467577",
        "inclination": "3.82374538059943",
        "ascending_node_longitude": "175.4151493820158",
        "orbital_period": "1437.793444922394",
        "perihelion_distance": "1.17321554534273",
        "perihelion_argument": "223.1595843270159",
        "aphelion_distance": "3.812896619592424",
        "perihelion_time": "2459152.283943780518",
        "mean_anomaly": "321.9957790502127",
        "mean_motion": ".2503836703883646",
        "equinox": "J2000",
        "orbit_class": {
            "orbit_class_type": "AMO",
            "orbit_class_description": "Near-Earth asteroid orbits similar to that of 1221 Amor",
            "orbit_class_range": "1.017 AU < q (perihelion) < 1.3 AU"
        }
    },
    "is_sentry_object": false
}